KINEIS-2D               
1 62930U 25028C   26188.73269817  .00001430  00000+0  21622-3 0  9998
2 62930  97.9275 240.7825 0004506 125.6567 234.5063 14.75753457 75740
KINEIS-2E               
1 62931U 25028D   26188.14176567  .00001327  00000+0  19502-3 0  9992
2 62931  97.8944 239.3498 0002126 101.1848 258.9602 14.77072474 75722
KINEIS-2A               
1 62932U 25028E   26188.73984178  .00001170  00000+0  18818-3 0  9998
2 62932  98.1291 244.1562 0006063 101.5761 258.6127 14.73437928 75634
KINEIS-2B               
1 62934U 25028G   26188.71720208  .00001133  00000+0  18217-3 0  9992
2 62934  97.9658 241.2061 0005031  90.5212 269.6572 14.73438934 75683
KINEIS-4E               
1 63300U 25056A   26188.84168245  .00001308  00000+0  21465-3 0  9995
2 63300  97.9061 312.1660 0003060  97.8977 262.2578 14.72288681 70164
KINEIS-4C               
1 63301U 25056B   26188.85416980  .00001331  00000+0  21820-3 0  9990
2 63301  97.9115 312.4221 0002305 243.8811 116.2160 14.72310270 70178
KINEIS-4D               
1 63302U 25056C   26188.85780667  .00001352  00000+0  22104-3 0  9996
2 63302  97.9036 312.4047 0001087 259.7030 100.4055 14.72412798 70178
KINEIS-4A               
1 63303U 25056D   26188.82474179  .00001286  00000+0  21108-3 0  9991
2 63303  97.9130 312.3165 0001534 166.5566 193.5683 14.72319743 70165
KINEIS-4B               
1 63304U 25056E   26188.87539793  .00001271  00000+0  20876-3 0  9996
2 63304  97.9142 312.4222 0004706 218.1780 141.9095 14.72314360 70164
