{"fetched_at":"2026-07-08T07:04:02.728Z","source":"https://celestrak.org/NORAD/elements/gp.php?NAME=KINEIS&FORMAT=JSON","constellation":"kineis","records":[{"OBJECT_NAME":"KINEIS-2D","OBJECT_ID":"2025-028C","EPOCH":"2026-07-07T17:35:05.121888","CLASSIFICATION_TYPE":"U","MEAN_MOTION":14.75753457,"ECCENTRICITY":0.0004506,"INCLINATION":97.9275,"RA_OF_ASC_NODE":240.7825,"ARG_OF_PERICENTER":125.6567,"MEAN_ANOMALY":234.5063,"EPHEMERIS_TYPE":0,"NORAD_CAT_ID":62930,"ELEMENT_SET_NO":999,"REV_AT_EPOCH":7574,"BSTAR":0.00021622,"MEAN_MOTION_DOT":0.0000143,"MEAN_MOTION_DDOT":0},{"OBJECT_NAME":"KINEIS-2E","OBJECT_ID":"2025-028D","EPOCH":"2026-07-07T03:24:08.553888","CLASSIFICATION_TYPE":"U","MEAN_MOTION":14.77072474,"ECCENTRICITY":0.00021266,"INCLINATION":97.8944,"RA_OF_ASC_NODE":239.3498,"ARG_OF_PERICENTER":101.1848,"MEAN_ANOMALY":258.9602,"EPHEMERIS_TYPE":0,"NORAD_CAT_ID":62931,"ELEMENT_SET_NO":999,"REV_AT_EPOCH":7572,"BSTAR":0.00019501992,"MEAN_MOTION_DOT":0.00001327,"MEAN_MOTION_DDOT":0},{"OBJECT_NAME":"KINEIS-2A","OBJECT_ID":"2025-028E","EPOCH":"2026-07-07T17:45:22.329792","CLASSIFICATION_TYPE":"U","MEAN_MOTION":14.73437928,"ECCENTRICITY":0.0006063,"INCLINATION":98.1291,"RA_OF_ASC_NODE":244.1562,"ARG_OF_PERICENTER":101.5761,"MEAN_ANOMALY":258.6127,"EPHEMERIS_TYPE":0,"NORAD_CAT_ID":62932,"ELEMENT_SET_NO":999,"REV_AT_EPOCH":7563,"BSTAR":0.00018818,"MEAN_MOTION_DOT":0.0000117,"MEAN_MOTION_DDOT":0},{"OBJECT_NAME":"KINEIS-2B","OBJECT_ID":"2025-028G","EPOCH":"2026-07-07T17:12:46.259712","CLASSIFICATION_TYPE":"U","MEAN_MOTION":14.73438934,"ECCENTRICITY":0.0005031,"INCLINATION":97.9658,"RA_OF_ASC_NODE":241.2061,"ARG_OF_PERICENTER":90.5212,"MEAN_ANOMALY":269.6572,"EPHEMERIS_TYPE":0,"NORAD_CAT_ID":62934,"ELEMENT_SET_NO":999,"REV_AT_EPOCH":7568,"BSTAR":0.00018217,"MEAN_MOTION_DOT":0.00001133,"MEAN_MOTION_DDOT":0},{"OBJECT_NAME":"KINEIS-4E","OBJECT_ID":"2025-056A","EPOCH":"2026-07-07T20:12:01.363680","CLASSIFICATION_TYPE":"U","MEAN_MOTION":14.72288681,"ECCENTRICITY":0.000306,"INCLINATION":97.9061,"RA_OF_ASC_NODE":312.166,"ARG_OF_PERICENTER":97.8977,"MEAN_ANOMALY":262.2578,"EPHEMERIS_TYPE":0,"NORAD_CAT_ID":63300,"ELEMENT_SET_NO":999,"REV_AT_EPOCH":7016,"BSTAR":0.00021465,"MEAN_MOTION_DOT":0.00001308,"MEAN_MOTION_DDOT":0},{"OBJECT_NAME":"KINEIS-4C","OBJECT_ID":"2025-056B","EPOCH":"2026-07-07T20:30:00.270720","CLASSIFICATION_TYPE":"U","MEAN_MOTION":14.7231027,"ECCENTRICITY":0.0002305,"INCLINATION":97.9115,"RA_OF_ASC_NODE":312.4221,"ARG_OF_PERICENTER":243.8811,"MEAN_ANOMALY":116.216,"EPHEMERIS_TYPE":0,"NORAD_CAT_ID":63301,"ELEMENT_SET_NO":999,"REV_AT_EPOCH":7017,"BSTAR":0.0002182,"MEAN_MOTION_DOT":0.00001331,"MEAN_MOTION_DDOT":0},{"OBJECT_NAME":"KINEIS-4D","OBJECT_ID":"2025-056C","EPOCH":"2026-07-07T20:35:14.496288","CLASSIFICATION_TYPE":"U","MEAN_MOTION":14.72412798,"ECCENTRICITY":0.0001087,"INCLINATION":97.9036,"RA_OF_ASC_NODE":312.4047,"ARG_OF_PERICENTER":259.703,"MEAN_ANOMALY":100.4055,"EPHEMERIS_TYPE":0,"NORAD_CAT_ID":63302,"ELEMENT_SET_NO":999,"REV_AT_EPOCH":7017,"BSTAR":0.00022104,"MEAN_MOTION_DOT":0.00001352,"MEAN_MOTION_DDOT":0},{"OBJECT_NAME":"KINEIS-4A","OBJECT_ID":"2025-056D","EPOCH":"2026-07-07T19:47:37.690656","CLASSIFICATION_TYPE":"U","MEAN_MOTION":14.72319743,"ECCENTRICITY":0.0001534,"INCLINATION":97.913,"RA_OF_ASC_NODE":312.3165,"ARG_OF_PERICENTER":166.5566,"MEAN_ANOMALY":193.5683,"EPHEMERIS_TYPE":0,"NORAD_CAT_ID":63303,"ELEMENT_SET_NO":999,"REV_AT_EPOCH":7016,"BSTAR":0.00021108,"MEAN_MOTION_DOT":0.00001286,"MEAN_MOTION_DDOT":0},{"OBJECT_NAME":"KINEIS-4B","OBJECT_ID":"2025-056E","EPOCH":"2026-07-07T21:00:34.381152","CLASSIFICATION_TYPE":"U","MEAN_MOTION":14.7231436,"ECCENTRICITY":0.0004706,"INCLINATION":97.9142,"RA_OF_ASC_NODE":312.4222,"ARG_OF_PERICENTER":218.178,"MEAN_ANOMALY":141.9095,"EPHEMERIS_TYPE":0,"NORAD_CAT_ID":63304,"ELEMENT_SET_NO":999,"REV_AT_EPOCH":7016,"BSTAR":0.00020876,"MEAN_MOTION_DOT":0.00001271,"MEAN_MOTION_DDOT":0}]}
